#cP2024  2 18  6  0  0.00000000     577 d+D   IGS20 EXT AIUB
## 2302  21600.00000000   300.00000000 60358 0.2500000000000
+   78   G01G02G03G04G05G06G07G08G09G10G11G12G13G14G15G16G17
+        G18G19G20G21G22G23G24G25G26G27G28G29G30G31G32R01R02
+        R03R04R05R07R08R09R11R12R13R14R15R16R17R18R19R20R21
+        R22R24E02E03E04E05E07E08E09E10E11E12E13E14E15E18E19
+        E21E24E25E26E27E30E31E33E34E36  0  0  0  0  0  0  0
++         7  7  6  7  7  6  7  7  6  6  7  7  7  5  7  7  7
++         7  7  7  7  7  6  6  6  6  7  7  7  5  7  6  9  8
++         8  8  8  8  7  6  6  6  7  6  7  7  8  8  8  9  8
++         7  8  6  6  7  7  7  7  7  7  6  6  7  6  6  7  6
++         6  7  6  7  6  6  6  7  6  7  0  0  0  0  0  0  0
%c M  cc GPS ccc cccc cccc cccc cccc ccccc ccccc ccccc ccccc
%c cc cc ccc ccc cccc cccc cccc cccc ccccc ccccc ccccc ccccc
%f  1.2500000  1.025000000  0.00000000000  0.000000000000000
%f  0.0000000  0.000000000  0.00000000000  0.000000000000000
%i    0    0    0    0      0      0      0      0         0
%i    0    0    0    0      0      0      0      0         0
/* Center for Orbit Determination in Europe (CODE)          
/* Ultra-rapid GRE orbits starting year-day 24049 06 hour   
/* Observed/predicted: 25/23 hours (data used up to 050G)   
/* PCV:IGS20      OL/AL:FES2014b NONE     YN ORB:CoN CLK:BRD
*  2024  2 18 10 40  0.00000000
PG01 -17968.889646  -5336.883589  18617.367695    170.040849
PG02 -20639.871069 -11123.961923  13213.938848   -483.580106
PG03 -15853.993055    318.307257  21143.017670    200.783862
PG04 -26187.083714  -2102.380131   4385.146847    294.650002
PG05  10293.108951  12691.984129 -21090.772260   -162.261247
PG06   2719.129090  21855.973401  14831.962050    402.361431
PG07 -13263.346040   7515.443503 -21270.979184    -64.794078
PG08 -22728.294555  -6602.348307 -12567.600475   -167.614548
PG09 -24005.476897   8061.892416  -8192.050841     96.181641
PG10  10328.843404 -24213.960822   1956.294561      0.918400
PG11  11263.291176  23760.852230   3945.700559   -579.823043
PG12  15991.717817   1325.694035  20866.800775   -479.158013
PG13  14845.585616  13283.907196 -17878.433351    626.629553
PG14 -13355.473299  22758.552055  -1883.306877    328.882483
PG15  23060.037398   4684.383215 -13003.857194    128.945730
PG16  -4714.130091 -18011.411282 -19098.782437   -360.025181
PG17 -14403.650620  12924.424554  18683.490076    716.602384
PG18  12078.157836  -8755.218044 -21955.504266   -558.189233
PG19  -4135.575291  14639.807889  21550.170496    442.336878
PG20   2953.785573  23081.362903 -12892.693340    387.049106
PG21 -20522.718261 -15670.857511   8594.783713    134.497707
PG22  -9269.469318  24276.851033   6618.872646     29.267656
PG23  15956.449869 -18409.345093 -10326.192939    158.744516
PG24  20677.388720  13294.414654  10157.382630   -433.662063
PG25  17722.360793 -10571.010560  16228.576617    488.943798
PG26   1487.486052 -24359.200385 -10167.868330    188.939681
PG27 -11867.611897 -13150.272869 -20195.921514     -5.070192
PG28   -875.575328 -20791.277836  16486.030473   -135.113846
PG29  25300.466058  -4578.731059  -6919.803259   -606.735716
PG30  -5093.188418  17576.367915 -19029.876930   -431.010324
PG31  -8071.737027 -23554.257338   8434.864842   -227.804892
PG32  10149.156753 -14680.433922  19804.783664   -612.252288
PR01 -14374.441135  15327.246231 -14447.021455     77.479592
PR02   2028.659728  10887.143049 -22933.751058    -22.534592
PR03  17846.288669    723.723135 -18132.482247     94.742782
PR04  23425.293377  -9421.666041  -3539.349319    223.973395
PR05  16478.715468 -14506.993752  12981.763495    127.105390
PR07 -18481.004875   -179.993225  17651.309027     76.091062
PR08 -23390.920482   9645.105555   3445.735639    -74.483477
PR09  -3289.645406 -23925.683967  -8320.889443    170.665365
PR11 -10873.454179   6570.688222 -22111.244384     33.943931
PR12  -5894.834717  22984.269538  -9366.936888     36.886966
PR13   1708.595978  24715.926082   6064.060163    -44.491215
PR14   9580.894095  11079.140614  20883.081099     26.069582
PR15  10918.039496  -8104.784839  21593.809330     82.092658
PR16   5841.243074 -22879.715770   9690.454841     23.352809
PR17  21712.262889  13075.345136  -3019.218046     62.243691
PR18  18148.327083   2936.246611 -17636.678947    127.993236
PR19   7173.115109  -7586.906071 -23270.278820   -266.261740
PR20 -11923.862463 -17063.923186 -14764.858874   -108.450284
PR21 -21616.674945 -13113.183647   3308.440514    -77.919151
PR22 -17728.447924  -2390.529132  18220.240824    108.705266
PR24  12850.130205  16855.814920  14217.861963    -44.403140
PE02  16751.680968 -23671.240424   5870.874145    104.412136
PE03  19462.647231 -13505.490184  17752.727094    -94.623897
PE04   2262.232087  16833.107210 -24233.516562   -330.113257
PE05  29489.382492  -2350.934260   1018.726882   4721.191333
PE07 -22041.427490 -10493.025008  16742.169829   -104.404172
PE08  -1419.966183 -16757.220629  24360.608143   -225.778046
PE09  21964.685864  10435.778126 -16880.789190   -340.412510
PE10  14581.961433  25597.473325   2869.783261   -602.878953
PE11  19496.252260  20915.759211  -7619.260329   3239.466127
PE12   7895.287969  25998.711462  11715.957831   -911.586052
PE13 -19293.895522 -21348.620337   6980.676978    -20.215889
PE14 -18982.472003 -11577.234031 -14040.331106 999999.999999
PE15  -7554.674804 -25890.493198 -12203.304698    -86.481813
PE18  30833.514460   2460.060905   2872.445192 999999.999999
PE19 -21410.472514  12347.315708 -16281.878387   -591.858333
PE21 -19886.897223   7787.454143 -20506.954230   -579.641952
PE24  11295.243400  13817.548757  23595.949834   -604.966947
PE25  19823.329807  -7365.383497  20703.608892      1.052344
PE26 -19494.055780  -3678.970853  21980.112857    372.277790
PE27 -11587.499368 -13356.452660 -23743.105238   -277.745333
PE30   3666.822253 -26453.571100 -12765.014267     -9.496557
PE31  -3459.698409  26399.496945  12939.277775    -16.277292
PE33  -8876.227007  14709.398046  24111.138056      7.781530
PE34   8422.803953 -15206.527614 -23956.786073    -95.313051
PE36  19559.475598   4403.224857 -21763.272692   -187.610417
EOF
